{
  "type": "FeatureCollection",
  "features": [
    {
      "type": "Feature",
      "properties": {
        "norad_id": 66909,
        "name": "SILVERSAT",
        "group": "stations",
        "lat": 36.130096041080236,
        "lon": 141.8943355893487,
        "alt_km": 406.4285429289703,
        "timestamp": "2025-12-19T22:41:51.128934+00:00",
        "meta_object_name": "SILVERSAT",
        "meta_object_id": "1998-067XV",
        "meta_epoch": "2025-12-19T13:13:09.424128",
        "meta_mean_motion": 15.5251652,
        "meta_eccentricity": 0.0003839,
        "meta_inclination": 51.6306,
        "meta_ra_of_asc_node": 108.5226,
        "meta_arg_of_pericenter": 268.696,
        "meta_mean_anomaly": 91.359,
        "meta_ephemeris_type": 0,
        "meta_classification_type": "U",
        "meta_norad_cat_id": 66909,
        "meta_element_set_no": 999,
        "meta_rev_at_epoch": 267,
        "meta_bstar": 0.00079912,
        "meta_mean_motion_dot": 0.00049748,
        "meta_mean_motion_ddot": 0,
        "tle_line1": "1 66909U 98067XV  25353.55080352  .00049748  00000+0  79912-3 0  9998",
        "tle_line2": "2 66909  51.6306 108.5226 0003839 268.6960  91.3590 15.52516520  2671"
      },
      "geometry": {
        "type": "Point",
        "coordinates": [
          141.8943355893487,
          36.130096041080236
        ]
      }
    },
    {
      "type": "Feature",
      "properties": {
        "norad_id": 66910,
        "name": "1998-067XW",
        "group": "stations",
        "lat": 42.08452320512935,
        "lon": 152.22035401671724,
        "alt_km": 406.4831745247029,
        "timestamp": "2025-12-19T22:41:51.128944+00:00",
        "meta_object_name": "1998-067XW",
        "meta_object_id": "1998-067XW",
        "meta_epoch": "2025-12-19T13:10:35.176800",
        "meta_mean_motion": 15.525263,
        "meta_eccentricity": 0.0004382,
        "meta_inclination": 51.6305,
        "meta_ra_of_asc_node": 108.5102,
        "meta_arg_of_pericenter": 243.3936,
        "meta_mean_anomaly": 116.6605,
        "meta_ephemeris_type": 0,
        "meta_classification_type": "U",
        "meta_norad_cat_id": 66910,
        "meta_element_set_no": 999,
        "meta_rev_at_epoch": 267,
        "meta_bstar": 0.00069409,
        "meta_mean_motion_dot": 0.0004313,
        "meta_mean_motion_ddot": 0,
        "tle_line1": "1 66910U 98067XW  25353.54901825  .00043130  00000+0  69409-3 0  9995",
        "tle_line2": "2 66910  51.6305 108.5102 0004382 243.3936 116.6605 15.52526300  2677"
      },
      "geometry": {
        "type": "Point",
        "coordinates": [
          152.22035401671724,
          42.08452320512935
        ]
      }
    },
    {
      "type": "Feature",
      "properties": {
        "norad_id": 66911,
        "name": "1998-067XX",
        "group": "stations",
        "lat": 48.07681237981073,
        "lon": 168.43257301529448,
        "alt_km": 404.11433419302557,
        "timestamp": "2025-12-19T22:41:51.128986+00:00",
        "meta_object_name": "1998-067XX",
        "meta_object_id": "1998-067XX",
        "meta_epoch": "2025-12-19T11:34:45.306048",
        "meta_mean_motion": 15.52926927,
        "meta_eccentricity": 0.0003973,
        "meta_inclination": 51.6303,
        "meta_ra_of_asc_node": 108.8169,
        "meta_arg_of_pericenter": 252.7574,
        "meta_mean_anomaly": 107.2982,
        "meta_ephemeris_type": 0,
        "meta_classification_type": "U",
        "meta_norad_cat_id": 66911,
        "meta_element_set_no": 999,
        "meta_rev_at_epoch": 265,
        "meta_bstar": 0.00085487,
        "meta_mean_motion_dot": 0.00054082,
        "meta_mean_motion_ddot": 0,
        "tle_line1": "1 66911U 98067XX  25353.48246882  .00054082  00000+0  85487-3 0  9996",
        "tle_line2": "2 66911  51.6303 108.8169 0003973 252.7574 107.2982 15.52926927  2650"
      },
      "geometry": {
        "type": "Point",
        "coordinates": [
          168.43257301529448,
          48.07681237981073
        ]
      }
    },
    {
      "type": "Feature",
      "properties": {
        "norad_id": 66912,
        "name": "1998-067XY",
        "group": "stations",
        "lat": 17.90035781762769,
        "lon": 121.43725290888557,
        "alt_km": 410.9948343676788,
        "timestamp": "2025-12-19T22:41:51.129010+00:00",
        "meta_object_name": "1998-067XY",
        "meta_object_id": "1998-067XY",
        "meta_epoch": "2025-12-19T14:52:14.043072",
        "meta_mean_motion": 15.51780846,
        "meta_eccentricity": 0.0004012,
        "meta_inclination": 51.6307,
        "meta_ra_of_asc_node": 108.231,
        "meta_arg_of_pericenter": 260.881,
        "meta_mean_anomaly": 99.1725,
        "meta_ephemeris_type": 0,
        "meta_classification_type": "U",
        "meta_norad_cat_id": 66912,
        "meta_element_set_no": 999,
        "meta_rev_at_epoch": 267,
        "meta_bstar": 0.00063264,
        "meta_mean_motion_dot": 0.00038197,
        "meta_mean_motion_ddot": 0,
        "tle_line1": "1 66912U 98067XY  25353.61960698  .00038197  00000+0  63264-3 0  9998",
        "tle_line2": "2 66912  51.6307 108.2310 0004012 260.8810  99.1725 15.51780846  2678"
      },
      "geometry": {
        "type": "Point",
        "coordinates": [
          121.43725290888557,
          17.90035781762769
        ]
      }
    }
  ]
}